{
  "type": "FeatureCollection",
  "features": [
    {
      "type": "Feature",
      "properties": {
        "norad_id": 67075,
        "name": "STARLINK-36230",
        "group": "last-30-days",
        "lat": -11.963559032725138,
        "lon": 34.739963171177244,
        "alt_km": 347.26572301877695,
        "timestamp": "2025-12-26T16:33:54.333303+00:00",
        "meta_object_name": "STARLINK-36230",
        "meta_object_id": "2025-298A",
        "meta_epoch": "2025-12-26T06:00:02.999808",
        "meta_mean_motion": 15.77019794,
        "meta_eccentricity": 0.00036244,
        "meta_inclination": 69.997,
        "meta_ra_of_asc_node": 211.5613,
        "meta_arg_of_pericenter": 271.747,
        "meta_mean_anomaly": 304.0481,
        "meta_ephemeris_type": 0,
        "meta_classification_type": "U",
        "meta_norad_cat_id": 67075,
        "meta_element_set_no": 999,
        "meta_rev_at_epoch": 314,
        "meta_bstar": -0.012426273,
        "meta_mean_motion_dot": -0.01781913,
        "meta_mean_motion_ddot": 0,
        "tle_line1": "1 67075U 25298A   25360.25003472 -.01781913  00000+0 -12426-1 0  9997",
        "tle_line2": "2 67075  69.9970 211.5613 0003624 271.7470 304.0481 15.77019794  3147"
      },
      "geometry": {
        "type": "Point",
        "coordinates": [
          34.739963171177244,
          -11.963559032725138
        ]
      }
    },
    {
      "type": "Feature",
      "properties": {
        "norad_id": 67076,
        "name": "STARLINK-36240",
        "group": "last-30-days",
        "lat": -13.776841802967324,
        "lon": 35.434936473145804,
        "alt_km": 347.33367681466916,
        "timestamp": "2025-12-26T16:33:54.333312+00:00",
        "meta_object_name": "STARLINK-36240",
        "meta_object_id": "2025-298B",
        "meta_epoch": "2025-12-26T06:00:02.999808",
        "meta_mean_motion": 15.7701634,
        "meta_eccentricity": 0.00033603,
        "meta_inclination": 69.9969,
        "meta_ra_of_asc_node": 211.5587,
        "meta_arg_of_pericenter": 269.6462,
        "meta_mean_anomaly": 308.0842,
        "meta_ephemeris_type": 0,
        "meta_classification_type": "U",
        "meta_norad_cat_id": 67076,
        "meta_element_set_no": 999,
        "meta_rev_at_epoch": 314,
        "meta_bstar": -0.012394719,
        "meta_mean_motion_dot": -0.01777419,
        "meta_mean_motion_ddot": 0,
        "tle_line1": "1 67076U 25298B   25360.25003472 -.01777419  00000+0 -12395-1 0  9999",
        "tle_line2": "2 67076  69.9969 211.5587 0003360 269.6462 308.0842 15.77016340  3149"
      },
      "geometry": {
        "type": "Point",
        "coordinates": [
          35.434936473145804,
          -13.776841802967324
        ]
      }
    },
    {
      "type": "Feature",
      "properties": {
        "norad_id": 67077,
        "name": "STARLINK-36243",
        "group": "last-30-days",
        "lat": -15.801289902331755,
        "lon": 36.2249710105137,
        "alt_km": 347.547350872941,
        "timestamp": "2025-12-26T16:33:54.333322+00:00",
        "meta_object_name": "STARLINK-36243",
        "meta_object_id": "2025-298C",
        "meta_epoch": "2025-12-26T06:00:02.999808",
        "meta_mean_motion": 15.77008449,
        "meta_eccentricity": 0.00036013,
        "meta_inclination": 69.9968,
        "meta_ra_of_asc_node": 211.556,
        "meta_arg_of_pericenter": 272.1331,
        "meta_mean_anomaly": 307.7824,
        "meta_ephemeris_type": 0,
        "meta_classification_type": "U",
        "meta_norad_cat_id": 67077,
        "meta_element_set_no": 999,
        "meta_rev_at_epoch": 314,
        "meta_bstar": -0.012438284,
        "meta_mean_motion_dot": -0.01782609,
        "meta_mean_motion_ddot": 0,
        "tle_line1": "1 67077U 25298C   25360.25003472 -.01782609  00000+0 -12438-1 0  9995",
        "tle_line2": "2 67077  69.9968 211.5560 0003601 272.1331 307.7824 15.77008449  3149"
      },
      "geometry": {
        "type": "Point",
        "coordinates": [
          36.2249710105137,
          -15.801289902331755
        ]
      }
    },
    {
      "type": "Feature",
      "properties": {
        "norad_id": 67078,
        "name": "STARLINK-36236",
        "group": "last-30-days",
        "lat": -17.508008021110037,
        "lon": 36.90423209321714,
        "alt_km": 347.6224781292249,
        "timestamp": "2025-12-26T16:33:54.333331+00:00",
        "meta_object_name": "STARLINK-36236",
        "meta_object_id": "2025-298D",
        "meta_epoch": "2025-12-26T06:00:02.999808",
        "meta_mean_motion": 15.77010817,
        "meta_eccentricity": 0.00035897,
        "meta_inclination": 69.997,
        "meta_ra_of_asc_node": 211.5538,
        "meta_arg_of_pericenter": 272.0378,
        "meta_mean_anomaly": 309.6995,
        "meta_ephemeris_type": 0,
        "meta_classification_type": "U",
        "meta_norad_cat_id": 67078,
        "meta_element_set_no": 999,
        "meta_rev_at_epoch": 314,
        "meta_bstar": -0.012417087,
        "meta_mean_motion_dot": -0.0178009,
        "meta_mean_motion_ddot": 0,
        "tle_line1": "1 67078U 25298D   25360.25003472 -.01780090  00000+0 -12417-1 0  9995",
        "tle_line2": "2 67078  69.9970 211.5538 0003589 272.0378 309.6995 15.77010817  3145"
      },
      "geometry": {
        "type": "Point",
        "coordinates": [
          36.90423209321714,
          -17.508008021110037
        ]
      }
    },
    {
      "type": "Feature",
      "properties": {
        "norad_id": 67079,
        "name": "STARLINK-36159",
        "group": "last-30-days",
        "lat": -19.539387312445676,
        "lon": 37.731147320638,
        "alt_km": 347.76718863272527,
        "timestamp": "2025-12-26T16:33:54.333341+00:00",
        "meta_object_name": "STARLINK-36159",
        "meta_object_id": "2025-298E",
        "meta_epoch": "2025-12-26T06:00:02.999808",
        "meta_mean_motion": 15.76999965,
        "meta_eccentricity": 0.00036642,
        "meta_inclination": 69.9971,
        "meta_ra_of_asc_node": 211.5513,
        "meta_arg_of_pericenter": 272.6614,
        "meta_mean_anomaly": 311.2743,
        "meta_ephemeris_type": 0,
        "meta_classification_type": "U",
        "meta_norad_cat_id": 67079,
        "meta_element_set_no": 999,
        "meta_rev_at_epoch": 314,
        "meta_bstar": -0.012434248,
        "meta_mean_motion_dot": -0.01781572,
        "meta_mean_motion_ddot": 0,
        "tle_line1": "1 67079U 25298E   25360.25003472 -.01781572  00000+0 -12434-1 0  9991",
        "tle_line2": "2 67079  69.9971 211.5513 0003664 272.6614 311.2743 15.76999965  3142"
      },
      "geometry": {
        "type": "Point",
        "coordinates": [
          37.731147320638,
          -19.539387312445676
        ]
      }
    },
    {
      "type": "Feature",
      "properties": {
        "norad_id": 67080,
        "name": "STARLINK-36158",
        "group": "last-30-days",
        "lat": -21.489320786331152,
        "lon": 38.546133122536354,
        "alt_km": 347.7793787816072,
        "timestamp": "2025-12-26T16:33:54.333350+00:00",
        "meta_object_name": "STARLINK-36158",
        "meta_object_id": "2025-298F",
        "meta_epoch": "2025-12-26T06:00:02.999808",
        "meta_mean_motion": 15.76995462,
        "meta_eccentricity": 0.00035129,
        "meta_inclination": 69.9968,
        "meta_ra_of_asc_node": 211.5486,
        "meta_arg_of_pericenter": 269.0221,
        "meta_mean_anomaly": 317.0189,
        "meta_ephemeris_type": 0,
        "meta_classification_type": "U",
        "meta_norad_cat_id": 67080,
        "meta_element_set_no": 999,
        "meta_rev_at_epoch": 309,
        "meta_bstar": -0.01248549,
        "meta_mean_motion_dot": -0.01787549,
        "meta_mean_motion_ddot": 0,
        "tle_line1": "1 67080U 25298F   25360.25003472 -.01787549  00000+0 -12485-1 0  9999",
        "tle_line2": "2 67080  69.9968 211.5486 0003512 269.0221 317.0189 15.76995462  3095"
      },
      "geometry": {
        "type": "Point",
        "coordinates": [
          38.546133122536354,
          -21.489320786331152
        ]
      }
    },
    {
      "type": "Feature",
      "properties": {
        "norad_id": 67081,
        "name": "STARLINK-35864",
        "group": "last-30-days",
        "lat": -23.301311581014133,
        "lon": 39.324821634773535,
        "alt_km": 347.8778150892067,
        "timestamp": "2025-12-26T16:33:54.333359+00:00",
        "meta_object_name": "STARLINK-35864",
        "meta_object_id": "2025-298G",
        "meta_epoch": "2025-12-26T06:00:02.999808",
        "meta_mean_motion": 15.76990339,
        "meta_eccentricity": 0.00036328,
        "meta_inclination": 69.9972,
        "meta_ra_of_asc_node": 211.5463,
        "meta_arg_of_pericenter": 270.5133,
        "meta_mean_anomaly": 317.4843,
        "meta_ephemeris_type": 0,
        "meta_classification_type": "U",
        "meta_norad_cat_id": 67081,
        "meta_element_set_no": 999,
        "meta_rev_at_epoch": 314,
        "meta_bstar": -0.012443967,
        "meta_mean_motion_dot": -0.01782089,
        "meta_mean_motion_ddot": 0,
        "tle_line1": "1 67081U 25298G   25360.25003472 -.01782089  00000+0 -12444-1 0  9999",
        "tle_line2": "2 67081  69.9972 211.5463 0003632 270.5133 317.4843 15.76990339  3143"
      },
      "geometry": {
        "type": "Point",
        "coordinates": [
          39.324821634773535,
          -23.301311581014133
        ]
      }
    }
  ]
}